ORBCOMM FM20 [+]        
1 25416U 98046D   23318.55937607  .00001169  00000+0  45962-3 0  9999
2 25416  44.9961  44.8614 0002055 221.3205 138.7487 14.34598858320814
ORBCOMM FM16 [-]        
1 25417U 98046E   23318.83299075  .00001696  00000+0  63464-3 0  9993
2 25417  44.9964  40.5088 0005537 251.3616 108.6630 14.35349423320991
ORBCOMM FM15 [-]        
1 25418U 98046F   23318.54881658  .00001507  00000+0  57231-3 0  9992
2 25418  44.9984  45.5131 0004996 250.2555 109.7753 14.35099367320746
ORBCOMM FM14 [-]        
1 25419U 98046G   23318.52380576  .00001644  00000+0  61845-3 0  9992
2 25419  44.9976  44.9474 0004069 238.9294 135.4477 14.35220011320690
ORBCOMM FM13 [+]        
1 25420U 98046H   23318.55689527  .00001336  00000+0  51744-3 0  9990
2 25420  44.9992  48.7717 0006094 238.8180 121.2070 14.34649475319772
ORBCOMM FM21 [-]        
1 25475U 98053A   23318.57428105  .00001203  00000+0  47100-3 0  9997
2 25475  45.0074 132.8184 0001030 170.8954 189.1912 14.34657077313798
ORBCOMM FM22 [-]        
1 25476U 98053B   23318.46880462  .00001319  00000+0  50772-3 0  9991
2 25476  45.0072 131.2263 0002770 180.6648 179.4196 14.35042912313769
ORBCOMM FM23 [-]        
1 25477U 98053C   23318.53480062  .00001212  00000+0  47424-3 0  9994
2 25477  45.0076 135.4513 0001979 175.8369 184.2494 14.34638889313931
